STARLINK-35158          
1 66381U 25257B   25326.58337963 -.00187911  00000+0 -13014-2 0  9996
2 66381  53.1554   0.9376 0001394  79.5152 327.6925 15.74295843  3252
STARLINK-35639          
1 66382U 25257C   25326.58337963 -.00132509  00000+0 -91203-3 0  9997
2 66382  53.1549   0.9332 0001394  89.2557 319.8910 15.74256070  3252
STARLINK-35690          
1 66383U 25257D   25326.58337963  .00146134  00000+0  99094-3 0  9991
2 66383  53.1550   0.9248 0000951  35.5775  17.4353 15.74046305  3255
STARLINK-35662          
1 66384U 25257E   25326.58337963  .00259580  00000+0  17321-2 0  9994
2 66384  53.1553   0.9217 0001094  53.6701   1.2708 15.74061630  3257
STARLINK-35659          
1 66385U 25257F   25326.58337963  .00156837  00000+0  10595-2 0  9992
2 66385  53.1549   0.9293 0001196  91.6136 319.4952 15.74097434  3250
STARLINK-35651          
1 66386U 25257G   25326.58337963  .00021921  00000+0  15373-3 0  9998
2 66386  53.1560   0.9171 0001559  84.8675 331.9805 15.74165735  3250
STARLINK-35661          
1 66387U 25257H   25326.58337963  .00011018  00000+0  79467-4 0  9990
2 66387  53.1559   0.9132 0001281  71.8181 346.9414 15.74177421  3253
STARLINK-35647          
1 66388U 25257J   25326.58337963  .00026115  00000+0  18210-3 0  9993
2 66388  53.1560   0.9093 0001029  52.8292   7.8159 15.74182604  3252
STARLINK-35694          
1 66389U 25257K   25326.58337963  .00013916  00000+0  99213-4 0  9992
2 66389  53.1561   0.9046 0001315  77.2785 345.3149 15.74175611  3257
STARLINK-35665          
1 66390U 25257L   25326.58337963 -.00022618  00000+0 -15060-3 0  9992
2 66390  53.1568   0.8331 0001115  77.3584  19.7312 15.74180818  3358
STARLINK-35656          
1 66391U 25257M   25326.58337963 -.01970740  00000+0 -13488-1 0  9992
2 66391  53.1523   0.5101 0001291  83.4646 170.4066 15.77404677  3350
STARLINK-35671          
1 66392U 25257N   25326.58337963 -.00008472  00000+0 -53585-4 0  9991
2 66392  53.1557   0.8972 0000833  72.1233 354.2577 15.74200659  3254
