CCSDS_OMM_VERS = 2.0
CREATION_DATE  = 
ORIGINATOR     = 

OBJECT_NAME    = STARLINK-35158
OBJECT_ID      = 2025-257B
CENTER_NAME    = EARTH
REF_FRAME      = TEME
TIME_SYSTEM    = UTC
MEAN_ELEMENT_THEORY = SGP/SGP4

EPOCH          = 2025-11-22T14:00:04.000032
MEAN_MOTION    = 15.74295843
ECCENTRICITY   = .00013947
INCLINATION    = 53.1554
RA_OF_ASC_NODE = 0.9376
ARG_OF_PERICENTER = 79.5152
MEAN_ANOMALY   = 327.6925

EPHEMERIS_TYPE = 0
CLASSIFICATION_TYPE = U
NORAD_CAT_ID   = 66381
ELEMENT_SET_NO = 999
REV_AT_EPOCH   = 325
BSTAR          = -.13013886E-2
MEAN_MOTION_DOT = -.187911E-2
MEAN_MOTION_DDOT = 0

CCSDS_OMM_VERS = 2.0
CREATION_DATE  = 
ORIGINATOR     = 

OBJECT_NAME    = STARLINK-35639
OBJECT_ID      = 2025-257C
CENTER_NAME    = EARTH
REF_FRAME      = TEME
TIME_SYSTEM    = UTC
MEAN_ELEMENT_THEORY = SGP/SGP4

EPOCH          = 2025-11-22T14:00:04.000032
MEAN_MOTION    = 15.74256070
ECCENTRICITY   = .0001394
INCLINATION    = 53.1549
RA_OF_ASC_NODE = 0.9332
ARG_OF_PERICENTER = 89.2557
MEAN_ANOMALY   = 319.8910

EPHEMERIS_TYPE = 0
CLASSIFICATION_TYPE = U
NORAD_CAT_ID   = 66382
ELEMENT_SET_NO = 999
REV_AT_EPOCH   = 325
BSTAR          = -.91203206E-3
MEAN_MOTION_DOT = -.132509E-2
MEAN_MOTION_DDOT = 0

CCSDS_OMM_VERS = 2.0
CREATION_DATE  = 
ORIGINATOR     = 

OBJECT_NAME    = STARLINK-35690
OBJECT_ID      = 2025-257D
CENTER_NAME    = EARTH
REF_FRAME      = TEME
TIME_SYSTEM    = UTC
MEAN_ELEMENT_THEORY = SGP/SGP4

EPOCH          = 2025-11-22T14:00:04.000032
MEAN_MOTION    = 15.74046305
ECCENTRICITY   = .00009518
INCLINATION    = 53.1550
RA_OF_ASC_NODE = 0.9248
ARG_OF_PERICENTER = 35.5775
MEAN_ANOMALY   = 17.4353

EPHEMERIS_TYPE = 0
CLASSIFICATION_TYPE = U
NORAD_CAT_ID   = 66383
ELEMENT_SET_NO = 999
REV_AT_EPOCH   = 325
BSTAR          = .9909411E-3
MEAN_MOTION_DOT = .146134E-2
MEAN_MOTION_DDOT = 0

CCSDS_OMM_VERS = 2.0
CREATION_DATE  = 
ORIGINATOR     = 

OBJECT_NAME    = STARLINK-35662
OBJECT_ID      = 2025-257E
CENTER_NAME    = EARTH
REF_FRAME      = TEME
TIME_SYSTEM    = UTC
MEAN_ELEMENT_THEORY = SGP/SGP4

EPOCH          = 2025-11-22T14:00:04.000032
MEAN_MOTION    = 15.74061630
ECCENTRICITY   = .0001094
INCLINATION    = 53.1553
RA_OF_ASC_NODE = 0.9217
ARG_OF_PERICENTER = 53.6701
MEAN_ANOMALY   = 1.2708

EPHEMERIS_TYPE = 0
CLASSIFICATION_TYPE = U
NORAD_CAT_ID   = 66384
ELEMENT_SET_NO = 999
REV_AT_EPOCH   = 325
BSTAR          = .1732084E-2
MEAN_MOTION_DOT = .25958E-2
MEAN_MOTION_DDOT = 0

CCSDS_OMM_VERS = 2.0
CREATION_DATE  = 
ORIGINATOR     = 

OBJECT_NAME    = STARLINK-35659
OBJECT_ID      = 2025-257F
CENTER_NAME    = EARTH
REF_FRAME      = TEME
TIME_SYSTEM    = UTC
MEAN_ELEMENT_THEORY = SGP/SGP4

EPOCH          = 2025-11-22T14:00:04.000032
MEAN_MOTION    = 15.74097434
ECCENTRICITY   = .00011961
INCLINATION    = 53.1549
RA_OF_ASC_NODE = 0.9293
ARG_OF_PERICENTER = 91.6136
MEAN_ANOMALY   = 319.4952

EPHEMERIS_TYPE = 0
CLASSIFICATION_TYPE = U
NORAD_CAT_ID   = 66385
ELEMENT_SET_NO = 999
REV_AT_EPOCH   = 325
BSTAR          = .1059509E-2
MEAN_MOTION_DOT = .156837E-2
MEAN_MOTION_DDOT = 0

CCSDS_OMM_VERS = 2.0
CREATION_DATE  = 
ORIGINATOR     = 

OBJECT_NAME    = STARLINK-35651
OBJECT_ID      = 2025-257G
CENTER_NAME    = EARTH
REF_FRAME      = TEME
TIME_SYSTEM    = UTC
MEAN_ELEMENT_THEORY = SGP/SGP4

EPOCH          = 2025-11-22T14:00:04.000032
MEAN_MOTION    = 15.74165735
ECCENTRICITY   = .00015597
INCLINATION    = 53.1560
RA_OF_ASC_NODE = 0.9171
ARG_OF_PERICENTER = 84.8675
MEAN_ANOMALY   = 331.9805

EPHEMERIS_TYPE = 0
CLASSIFICATION_TYPE = U
NORAD_CAT_ID   = 66386
ELEMENT_SET_NO = 999
REV_AT_EPOCH   = 325
BSTAR          = .1537325E-3
MEAN_MOTION_DOT = .21921E-3
MEAN_MOTION_DDOT = 0

CCSDS_OMM_VERS = 2.0
CREATION_DATE  = 
ORIGINATOR     = 

OBJECT_NAME    = STARLINK-35661
OBJECT_ID      = 2025-257H
CENTER_NAME    = EARTH
REF_FRAME      = TEME
TIME_SYSTEM    = UTC
MEAN_ELEMENT_THEORY = SGP/SGP4

EPOCH          = 2025-11-22T14:00:04.000032
MEAN_MOTION    = 15.74177421
ECCENTRICITY   = .00012814
INCLINATION    = 53.1559
RA_OF_ASC_NODE = 0.9132
ARG_OF_PERICENTER = 71.8181
MEAN_ANOMALY   = 346.9414

EPHEMERIS_TYPE = 0
CLASSIFICATION_TYPE = U
NORAD_CAT_ID   = 66387
ELEMENT_SET_NO = 999
REV_AT_EPOCH   = 325
BSTAR          = .79466521E-4
MEAN_MOTION_DOT = .11018E-3
MEAN_MOTION_DDOT = 0

CCSDS_OMM_VERS = 2.0
CREATION_DATE  = 
ORIGINATOR     = 

OBJECT_NAME    = STARLINK-35647
OBJECT_ID      = 2025-257J
CENTER_NAME    = EARTH
REF_FRAME      = TEME
TIME_SYSTEM    = UTC
MEAN_ELEMENT_THEORY = SGP/SGP4

EPOCH          = 2025-11-22T14:00:04.000032
MEAN_MOTION    = 15.74182604
ECCENTRICITY   = .00010293
INCLINATION    = 53.1560
RA_OF_ASC_NODE = 0.9093
ARG_OF_PERICENTER = 52.8292
MEAN_ANOMALY   = 7.8159

EPHEMERIS_TYPE = 0
CLASSIFICATION_TYPE = U
NORAD_CAT_ID   = 66388
ELEMENT_SET_NO = 999
REV_AT_EPOCH   = 325
BSTAR          = .1821034E-3
MEAN_MOTION_DOT = .26115E-3
MEAN_MOTION_DDOT = 0

CCSDS_OMM_VERS = 2.0
CREATION_DATE  = 
ORIGINATOR     = 

OBJECT_NAME    = STARLINK-35694
OBJECT_ID      = 2025-257K
CENTER_NAME    = EARTH
REF_FRAME      = TEME
TIME_SYSTEM    = UTC
MEAN_ELEMENT_THEORY = SGP/SGP4

EPOCH          = 2025-11-22T14:00:04.000032
MEAN_MOTION    = 15.74175611
ECCENTRICITY   = .00013156
INCLINATION    = 53.1561
RA_OF_ASC_NODE = 0.9046
ARG_OF_PERICENTER = 77.2785
MEAN_ANOMALY   = 345.3149

EPHEMERIS_TYPE = 0
CLASSIFICATION_TYPE = U
NORAD_CAT_ID   = 66389
ELEMENT_SET_NO = 999
REV_AT_EPOCH   = 325
BSTAR          = .9921282E-4
MEAN_MOTION_DOT = .13916E-3
MEAN_MOTION_DDOT = 0

CCSDS_OMM_VERS = 2.0
CREATION_DATE  = 
ORIGINATOR     = 

OBJECT_NAME    = STARLINK-35665
OBJECT_ID      = 2025-257L
CENTER_NAME    = EARTH
REF_FRAME      = TEME
TIME_SYSTEM    = UTC
MEAN_ELEMENT_THEORY = SGP/SGP4

EPOCH          = 2025-11-22T14:00:04.000032
MEAN_MOTION    = 15.74180818
ECCENTRICITY   = .00011153
INCLINATION    = 53.1568
RA_OF_ASC_NODE = 0.8331
ARG_OF_PERICENTER = 77.3584
MEAN_ANOMALY   = 19.7312

EPHEMERIS_TYPE = 0
CLASSIFICATION_TYPE = U
NORAD_CAT_ID   = 66390
ELEMENT_SET_NO = 999
REV_AT_EPOCH   = 335
BSTAR          = -.15060298E-3
MEAN_MOTION_DOT = -.22618E-3
MEAN_MOTION_DDOT = 0

CCSDS_OMM_VERS = 2.0
CREATION_DATE  = 
ORIGINATOR     = 

OBJECT_NAME    = STARLINK-35656
OBJECT_ID      = 2025-257M
CENTER_NAME    = EARTH
REF_FRAME      = TEME
TIME_SYSTEM    = UTC
MEAN_ELEMENT_THEORY = SGP/SGP4

EPOCH          = 2025-11-22T14:00:04.000032
MEAN_MOTION    = 15.77404677
ECCENTRICITY   = .00012916
INCLINATION    = 53.1523
RA_OF_ASC_NODE = 0.5101
ARG_OF_PERICENTER = 83.4646
MEAN_ANOMALY   = 170.4066

EPHEMERIS_TYPE = 0
CLASSIFICATION_TYPE = U
NORAD_CAT_ID   = 66391
ELEMENT_SET_NO = 999
REV_AT_EPOCH   = 335
BSTAR          = -.13487575E-1
MEAN_MOTION_DOT = -.197074E-1
MEAN_MOTION_DDOT = 0

CCSDS_OMM_VERS = 2.0
CREATION_DATE  = 
ORIGINATOR     = 

OBJECT_NAME    = STARLINK-35671
OBJECT_ID      = 2025-257N
CENTER_NAME    = EARTH
REF_FRAME      = TEME
TIME_SYSTEM    = UTC
MEAN_ELEMENT_THEORY = SGP/SGP4

EPOCH          = 2025-11-22T14:00:04.000032
MEAN_MOTION    = 15.74200659
ECCENTRICITY   = .0000833
INCLINATION    = 53.1557
RA_OF_ASC_NODE = 0.8972
ARG_OF_PERICENTER = 72.1233
MEAN_ANOMALY   = 354.2577

EPHEMERIS_TYPE = 0
CLASSIFICATION_TYPE = U
NORAD_CAT_ID   = 66392
ELEMENT_SET_NO = 999
REV_AT_EPOCH   = 325
BSTAR          = -.53584779E-4
MEAN_MOTION_DOT = -.8472E-4
MEAN_MOTION_DDOT = 0

